GLOBALSTAR M023 [+]     
1 25621U 99004A   24063.39228338 -.00000085  00000+0  10702-3 0  9997
2 25621  52.0113  46.9568 0010312 163.7180   1.4837 12.62448203156266
GLOBALSTAR M040 [-]     
1 25622U 99004B   24063.16698392 -.00000076  00000+0  15764-3 0  9997
2 25622  51.9922  51.1071 0001023  81.4606   0.1564 12.61967966155788
GLOBALSTAR M036 [-]     
1 25623U 99004C   24063.34045727 -.00000051  00000+0  45893-3 0  9995
2 25623  51.9978  41.3247 0011401 228.6218 280.4033 11.86561517123081
GLOBALSTAR M038 [-]     
1 25624U 99004D   24063.80857292 -.00000070  00000+0  20739-3 0  9998
2 25624  52.0004 346.1699 0001898 136.3606 257.8254 12.32493938144377
GLOBALSTAR M022 [-]     
1 25649U 99012A   24063.62297124 -.00000078  00000+0  11078-3 0  9990
2 25649  52.0027 130.0858 0002026 318.7184 207.9707 12.02478315119760
GLOBALSTAR M041 [-]     
1 25650U 99012B   24063.20481874 -.00000055  00000+0  39467-3 0  9990
2 25650  52.0054 358.3141 0002568  94.6380 265.4749 11.96656169121890
GLOBALSTAR M046 [-]     
1 25651U 99012C   24063.52002752 -.00000015  00000+0  81619-3 0  9992
2 25651  52.0044  97.6789 0002159  43.2594 104.3400 12.09386105126710
GLOBALSTAR M037 [+]     
1 25652U 99012D   24063.74631635 -.00000095  00000+0  48232-4 0  9998
2 25652  51.9995 176.6792 0001784 197.5009 327.0551 12.62397041151857
